start=new Date('2023-06-29T00:00:00.000Z').valueOf();
sats=[{"SITE":"AFETR","GP_ID":"234608926","MEAN_ANOMALY":"250.3619","MEAN_MOTION_DDOT":"0.0000000000000","OBJECT_ID":"2021-017AT","RA_OF_ASC_NODE":"318.4243","MEAN_ELEMENT_THEORY":"SGP4","REF_FRAME":"TEME","DECAY_DATE":null,"MEAN_MOTION_DOT":"0.00017860","INCLINATION":"53.0537","OBJECT_NAME":"STARLINK-2181","COUNTRY_CODE":"US","EPOCH":"2023-06-28T16:44:32.058528","PERIOD":"95.593","SEMIMAJOR_AXIS":"6925.380","OBJECT_TYPE":"PAYLOAD","CLASSIFICATION_TYPE":"U","MEAN_MOTION":"15.06389824","BSTAR":"0.00121520000000","NORAD_CAT_ID":"47763","TIME_SYSTEM":"UTC","EPHEMERIS_TYPE":"0","FILE":"3945106","RCS_SIZE":"LARGE","PERIAPSIS":"546.795","CENTER_NAME":"EARTH","ARG_OF_PERICENTER":"109.7440","TLE_LINE1":"1 47763U 21017AT  23179.69759327  .00017860  00000-0  12152-2 0  9993","APOAPSIS":"547.695","TLE_LINE2":"2 47763  53.0537 318.4243 0000650 109.7440 250.3619 15.06389824128567","ECCENTRICITY":"0.00006500","LAUNCH_DATE":"2021-03-04","ELEMENT_SET_NO":"999","REV_AT_EPOCH":"12856"},{"DECAY_DATE":null,"MEAN_ELEMENT_THEORY":"SGP4","RA_OF_ASC_NODE":"328.2615","REF_FRAME":"TEME","GP_ID":"234610571","SITE":"AFETR","MEAN_MOTION_DDOT":"0.0000000000000","OBJECT_ID":"2021-017AU","MEAN_ANOMALY":"282.7370","CLASSIFICATION_TYPE":"U","OBJECT_TYPE":"PAYLOAD","SEMIMAJOR_AXIS":"6925.399","PERIOD":"95.593","COUNTRY_CODE":"US","EPOCH":"2023-06-28T17:36:17.027424","OBJECT_NAME":"STARLINK-2182","MEAN_MOTION_DOT":"0.00018680","INCLINATION":"53.0538","PERIAPSIS":"546.720","FILE":"3945155","RCS_SIZE":"LARGE","NORAD_CAT_ID":"47764","TIME_SYSTEM":"UTC","EPHEMERIS_TYPE":"0","MEAN_MOTION":"15.06383473","BSTAR":"0.00127020000000","ELEMENT_SET_NO":"999","LAUNCH_DATE":"2021-03-04","REV_AT_EPOCH":"12843","TLE_LINE2":"2 47764  53.0538 328.2615 0000786  77.3707 282.7370 15.06383473128430","ECCENTRICITY":"0.00007860","CENTER_NAME":"EARTH","APOAPSIS":"547.809","ARG_OF_PERICENTER":"77.3707","TLE_LINE1":"1 47764U 21017AU  23179.73353041  .00018680  00000-0  12702-2 0  9994"},{"GP_ID":"234610573","SITE":"AFETR","MEAN_MOTION_DDOT":"0.0000000000000","OBJECT_ID":"2021-017AW","MEAN_ANOMALY":"252.7985","DECAY_DATE":null,"MEAN_ELEMENT_THEORY":"SGP4","RA_OF_ASC_NODE":"328.4704","REF_FRAME":"TEME","COUNTRY_CODE":"US","EPOCH":"2023-06-28T16:25:55.450848","MEAN_MOTION_DOT":"0.00002613","INCLINATION":"53.0549","OBJECT_NAME":"STARLINK-2184","CLASSIFICATION_TYPE":"U","OBJECT_TYPE":"PAYLOAD","SEMIMAJOR_AXIS":"6925.371","PERIOD":"95.593","NORAD_CAT_ID":"47766","TIME_SYSTEM":"UTC","EPHEMERIS_TYPE":"0","MEAN_MOTION":"15.06392659","BSTAR":"0.00019429000000","PERIAPSIS":"546.601","RCS_SIZE":"LARGE","FILE":"3945155","CENTER_NAME":"EARTH","APOAPSIS":"547.871","TLE_LINE1":"1 47766U 21017AW  23179.68466957  .00002613  00000-0  19429-3 0  9994","ARG_OF_PERICENTER":"107.3104","LAUNCH_DATE":"2021-03-04","ELEMENT_SET_NO":"999","REV_AT_EPOCH":"12842","TLE_LINE2":"2 47766  53.0549 328.4704 0000917 107.3104 252.7985 15.06392659128420","ECCENTRICITY":"0.00009170"},{"TLE_LINE2":"2 47767  53.0543 313.6577 0000924  79.7951 280.3142 15.06401834128630","ECCENTRICITY":"0.00009240","LAUNCH_DATE":"2021-03-04","ELEMENT_SET_NO":"999","REV_AT_EPOCH":"12863","CENTER_NAME":"EARTH","APOAPSIS":"547.848","ARG_OF_PERICENTER":"79.7951","TLE_LINE1":"1 47767U 21017AX  23179.64460838  .00019163  00000-0  13018-2 0  9998","RCS_SIZE":"LARGE","FILE":"3945155","PERIAPSIS":"546.568","MEAN_MOTION":"15.06401834","BSTAR":"0.00130180000000","NORAD_CAT_ID":"47767","EPHEMERIS_TYPE":"0","TIME_SYSTEM":"UTC","OBJECT_TYPE":"PAYLOAD","SEMIMAJOR_AXIS":"6925.343","PERIOD":"95.592","CLASSIFICATION_TYPE":"U","MEAN_MOTION_DOT":"0.00019163","INCLINATION":"53.0543","OBJECT_NAME":"STARLINK-2185","COUNTRY_CODE":"US","EPOCH":"2023-06-28T15:28:14.164032","MEAN_ELEMENT_THEORY":"SGP4","RA_OF_ASC_NODE":"313.6577","REF_FRAME":"TEME","DECAY_DATE":null,"GP_ID":"234610063","SITE":"AFETR","OBJECT_ID":"2021-017AX","MEAN_MOTION_DDOT":"0.0000000000000","MEAN_ANOMALY":"280.3142"},{"SITE":"AFETR","GP_ID":"234610579","MEAN_ANOMALY":"252.1269","MEAN_MOTION_DDOT":"0.0000000000000","OBJECT_ID":"2021-017AY","DECAY_DATE":null,"RA_OF_ASC_NODE":"328.8723","MEAN_ELEMENT_THEORY":"SGP4","REF_FRAME":"TEME","COUNTRY_CODE":"US","EPOCH":"2023-06-28T16:27:20.376000","MEAN_MOTION_DOT":"0.00019362","INCLINATION":"53.0543","OBJECT_NAME":"STARLINK-2189","CLASSIFICATION_TYPE":"U","PERIOD":"95.594","SEMIMAJOR_AXIS":"6925.415","OBJECT_TYPE":"PAYLOAD","NORAD_CAT_ID":"47768","EPHEMERIS_TYPE":"0","TIME_SYSTEM":"UTC","MEAN_MOTION":"15.06378479","BSTAR":"0.00131590000000","PERIAPSIS":"546.693","FILE":"3945193","RCS_SIZE":"LARGE","CENTER_NAME":"EARTH","TLE_LINE1":"1 47768U 21017AY  23179.68565250  .00019362  00000-0  13159-2 0  9994","ARG_OF_PERICENTER":"107.9813","APOAPSIS":"547.866","LAUNCH_DATE":"2021-03-04","ELEMENT_SET_NO":"999","REV_AT_EPOCH":"12842","TLE_LINE2":"2 47768  53.0543 328.8723 0000847 107.9813 252.1269 15.06378479128429","ECCENTRICITY":"0.00008470"},{"APOAPSIS":"547.862","ARG_OF_PERICENTER":"92.9399","TLE_LINE1":"1 47769U 21017AZ  23179.62801483  .00004190  00000-0  30014-3 0  9993","CENTER_NAME":"EARTH","TLE_LINE2":"2 47769  53.0546 293.7350 0000867  92.9399 267.1689 15.06384462128907","ECCENTRICITY":"0.00008670","REV_AT_EPOCH":"12890","ELEMENT_SET_NO":"999","LAUNCH_DATE":"2021-03-04","BSTAR":"0.00030014000000","MEAN_MOTION":"15.06384462","TIME_SYSTEM":"UTC","EPHEMERIS_TYPE":"0","NORAD_CAT_ID":"47769","RCS_SIZE":"LARGE","FILE":"3945193","PERIAPSIS":"546.661","OBJECT_NAME":"STARLINK-2192","MEAN_MOTION_DOT":"0.00004190","INCLINATION":"53.0546","EPOCH":"2023-06-28T15:04:20.481312","COUNTRY_CODE":"US","OBJECT_TYPE":"PAYLOAD","SEMIMAJOR_AXIS":"6925.396","PERIOD":"95.593","CLASSIFICATION_TYPE":"U","MEAN_MOTION_DDOT":"0.0000000000000","OBJECT_ID":"2021-017AZ","MEAN_ANOMALY":"267.1689","GP_ID":"234610082","SITE":"AFETR","REF_FRAME":"TEME","MEAN_ELEMENT_THEORY":"SGP4","RA_OF_ASC_NODE":"293.7350","DECAY_DATE":null},{"OBJECT_TYPE":"PAYLOAD","PERIOD":"95.592","SEMIMAJOR_AXIS":"6925.358","CLASSIFICATION_TYPE":"U","OBJECT_NAME":"STARLINK-2193","MEAN_MOTION_DOT":"0.00000121","INCLINATION":"53.0540","COUNTRY_CODE":"US","EPOCH":"2023-06-28T13:40:05.441088","MEAN_ELEMENT_THEORY":"SGP4","RA_OF_ASC_NODE":"308.9912","REF_FRAME":"TEME","DECAY_DATE":null,"GP_ID":"234610588","SITE":"AFETR","MEAN_MOTION_DDOT":"0.0000000000000","OBJECT_ID":"2021-017BA","MEAN_ANOMALY":"234.2134","TLE_LINE2":"2 47770  53.0540 308.9912 0001851 125.9027 234.2134 15.06397059128686","ECCENTRICITY":"0.00018510","LAUNCH_DATE":"2021-03-04","ELEMENT_SET_NO":"999","REV_AT_EPOCH":"12868","CENTER_NAME":"EARTH","APOAPSIS":"548.504","ARG_OF_PERICENTER":"125.9027","TLE_LINE1":"1 47770U 21017BA  23179.56950742  .00000121  00000-0  27032-4 0  9998","FILE":"3945193","RCS_SIZE":"LARGE","PERIAPSIS":"545.941","MEAN_MOTION":"15.06397059","BSTAR":"0.00002703200000","NORAD_CAT_ID":"47770","EPHEMERIS_TYPE":"0","TIME_SYSTEM":"UTC"},{"PERIAPSIS":"546.617","RCS_SIZE":"LARGE","FILE":"3945193","NORAD_CAT_ID":"47771","TIME_SYSTEM":"UTC","EPHEMERIS_TYPE":"0","MEAN_MOTION":"15.06390463","BSTAR":"0.00122000000000","LAUNCH_DATE":"2021-03-04","ELEMENT_SET_NO":"999","REV_AT_EPOCH":"12869","TLE_LINE2":"2 47771  53.0546 308.9482 0000904  34.6194 325.4854 15.06390463128699","ECCENTRICITY":"0.00009040","CENTER_NAME":"EARTH","APOAPSIS":"547.869","TLE_LINE1":"1 47771U 21017BB  23179.58056916  .00017932  00000-0  12200-2 0  9998","ARG_OF_PERICENTER":"34.6194","DECAY_DATE":null,"MEAN_ELEMENT_THEORY":"SGP4","RA_OF_ASC_NODE":"308.9482","REF_FRAME":"TEME","GP_ID":"234610586","SITE":"AFETR","MEAN_MOTION_DDOT":"0.0000000000000","OBJECT_ID":"2021-017BB","MEAN_ANOMALY":"325.4854","CLASSIFICATION_TYPE":"U","OBJECT_TYPE":"PAYLOAD","PERIOD":"95.593","SEMIMAJOR_AXIS":"6925.378","COUNTRY_CODE":"US","EPOCH":"2023-06-28T13:56:01.175424","INCLINATION":"53.0546","MEAN_MOTION_DOT":"0.00017932","OBJECT_NAME":"STARLINK-2194"},{"COUNTRY_CODE":"US","EPOCH":"2023-06-28T10:29:40.217856","INCLINATION":"53.0542","MEAN_MOTION_DOT":"0.00008183","OBJECT_NAME":"STARLINK-2195","CLASSIFICATION_TYPE":"U","OBJECT_TYPE":"PAYLOAD","SEMIMAJOR_AXIS":"6925.384","PERIOD":"95.593","GP_ID":"234603116","SITE":"AFETR","OBJECT_ID":"2021-017BC","MEAN_MOTION_DDOT":"0.0000000000000","MEAN_ANOMALY":"246.2782","DECAY_DATE":null,"MEAN_ELEMENT_THEORY":"SGP4","RA_OF_ASC_NODE":"324.5862","REF_FRAME":"TEME","CENTER_NAME":"EARTH","APOAPSIS":"547.863","ARG_OF_PERICENTER":"113.8300","TLE_LINE1":"1 47772U 21017BC  23179.43727104  .00008183  00000-0  56780-3 0  9997","ELEMENT_SET_NO":"999","LAUNCH_DATE":"2021-03-04","REV_AT_EPOCH":"12845","TLE_LINE2":"2 47772  53.0542 324.5862 0000887 113.8300 246.2782 15.06388548128456","ECCENTRICITY":"0.00008870","NORAD_CAT_ID":"47772","EPHEMERIS_TYPE":"0","TIME_SYSTEM":"UTC","MEAN_MOTION":"15.06388548","BSTAR":"0.00056780000000","PERIAPSIS":"546.634","FILE":"3944861","RCS_SIZE":"LARGE"},{"LAUNCH_DATE":"2021-03-04","ELEMENT_SET_NO":"999","REV_AT_EPOCH":"12845","TLE_LINE2":"2 47773  53.0554 324.6046 0001307  83.7187 276.3951 15.06391791128457","ECCENTRICITY":"0.00013070","CENTER_NAME":"EARTH","ARG_OF_PERICENTER":"83.7187","TLE_LINE1":"1 47773U 21017BD  23179.43358636  .00007884  00000-0  54768-3 0  9999","APOAPSIS":"548.144","PERIAPSIS":"546.334","RCS_SIZE":"LARGE","FILE":"3944930","NORAD_CAT_ID":"47773","EPHEMERIS_TYPE":"0","TIME_SYSTEM":"UTC","MEAN_MOTION":"15.06391791","BSTAR":"0.00054768000000","CLASSIFICATION_TYPE":"U","SEMIMAJOR_AXIS":"6925.374","PERIOD":"95.593","OBJECT_TYPE":"PAYLOAD","COUNTRY_CODE":"US","EPOCH":"2023-06-28T10:24:21.861504","INCLINATION":"53.0554","MEAN_MOTION_DOT":"0.00007884","OBJECT_NAME":"STARLINK-2196","DECAY_DATE":null,"RA_OF_ASC_NODE":"324.6046","MEAN_ELEMENT_THEORY":"SGP4","REF_FRAME":"TEME","SITE":"AFETR","GP_ID":"234605356","MEAN_ANOMALY":"276.3951","OBJECT_ID":"2021-017BD","MEAN_MOTION_DDOT":"0.0000000000000"}];
